ONEWEB-0066             
1 45424U 20020A   23303.18848736  .00000258  00000+0  69177-3 0  9996
2 45424  87.9004 211.9874 0001798  58.0013 302.1290 13.11420621176735
ONEWEB-0067             
1 45425U 20020B   23303.44091513  .00000550  00000+0  15159-2 0  9994
2 45425  87.9002 211.9110 0002064  71.7559 288.3793 13.11415791176826
ONEWEB-0080             
1 45426U 20020C   23303.16089220 -.00000413  00000+0 -12009-2 0  9997
2 45426  87.9008 211.9953 0001639  61.0040 299.1252 13.11412630176753
ONEWEB-0090             
1 45427U 20020D   23303.25502591  .00000321  00000+0  87123-3 0  9995
2 45427  87.9000 211.9558 0001744  68.6620 291.4694 13.11415475176734
ONEWEB-0061             
1 45428U 20020E   23303.44010417  .00000506  00000+0  13913-2 0  9998
2 45428  87.9003 211.9208 0001865  71.6626 288.4705 13.11415938176704
ONEWEB-0081             
1 45429U 20020F   23302.81024525  .00000481  00000+0  13211-2 0  9997
2 45429  87.9000 212.0642 0001993  65.8760 294.2577 13.11419353176732
ONEWEB-0069             
1 45430U 20020G   23303.25829359  .00000017  00000+0  12698-4 0  9991
2 45430  87.8997 211.9664 0001731  71.5517 288.5799 13.11420916176733
ONEWEB-0031             
1 45431U 20020H   23302.77128368 -.00000255  00000+0 -75655-3 0  9997
2 45431  87.9005 212.0573 0001776  81.1379 278.9950 13.11417887176643
